start=new Date('2021-10-18T00:00:00.000Z').valueOf();
sats=[{"SEMIMAJOR_AXIS":"6817.864","SITE":"AFETR","CENTER_NAME":"EARTH","PERIOD":"93.375","TLE_LINE2":"2 46050  53.0545 111.6094 0001285  81.6886 278.4265 15.42163096 67312","BSTAR":"0.00008154800000","TLE_LINE1":"1 46050U 20055Z   21290.22998164  .00003139  00000-0  81548-4 0  9998","REF_FRAME":"TEME","TIME_SYSTEM":"UTC","RCS_SIZE":"LARGE","ELEMENT_SET_NO":"999","OBJECT_TYPE":"PAYLOAD","RA_OF_ASC_NODE":"111.6094","REV_AT_EPOCH":"6731","MEAN_MOTION_DDOT":"0.0000000000000","OBJECT_ID":"2020-055Z","APOAPSIS":"440.605","EPOCH":"2021-10-17T05:31:10.413696","ECCENTRICITY":"0.00012850","DECAY_DATE":null,"ARG_OF_PERICENTER":"81.6886","FILE":"3168566","MEAN_ANOMALY":"278.4265","EPHEMERIS_TYPE":"0","MEAN_MOTION_DOT":"0.00003139","MEAN_MOTION":"15.42163096","NORAD_CAT_ID":"46050","GP_ID":"187443616","PERIAPSIS":"438.852","MEAN_ELEMENT_THEORY":"SGP4","LAUNCH_DATE":"2020-08-07","COUNTRY_CODE":"US","OBJECT_NAME":"STARLINK-1535","INCLINATION":"53.0545","CLASSIFICATION_TYPE":"U"},{"MEAN_MOTION":"15.06381081","PERIAPSIS":"546.133","GP_ID":"187443367","NORAD_CAT_ID":"46051","MEAN_ELEMENT_THEORY":"SGP4","OBJECT_ID":"2020-055AA","APOAPSIS":"548.410","ECCENTRICITY":"0.00016440","EPOCH":"2021-10-17T15:08:53.725632","DECAY_DATE":null,"ARG_OF_PERICENTER":"66.1956","FILE":"3168566","EPHEMERIS_TYPE":"0","MEAN_ANOMALY":"293.9205","MEAN_MOTION_DOT":"0.00000726","INCLINATION":"53.0533","CLASSIFICATION_TYPE":"U","LAUNCH_DATE":"2020-08-07","COUNTRY_CODE":"US","OBJECT_NAME":"STARLINK-1540","SITE":"AFETR","PERIOD":"95.593","CENTER_NAME":"EARTH","TLE_LINE2":"2 46051  53.0533 117.5252 0001644  66.1956 293.9205 15.06381081 67273","BSTAR":"0.00006763900000","TLE_LINE1":"1 46051U 20055AA  21290.63117738  .00000726  00000-0  67639-4 0  9998","REF_FRAME":"TEME","TIME_SYSTEM":"UTC","SEMIMAJOR_AXIS":"6925.407","RA_OF_ASC_NODE":"117.5252","OBJECT_TYPE":"PAYLOAD","REV_AT_EPOCH":"6727","MEAN_MOTION_DDOT":"0.0000000000000","RCS_SIZE":"LARGE","ELEMENT_SET_NO":"999"},{"PERIOD":"95.592","CENTER_NAME":"EARTH","TLE_LINE2":"2 46052  53.0530 117.2913 0001370  82.9619 277.1525 15.06395981 67240","SITE":"AFETR","REF_FRAME":"TEME","TIME_SYSTEM":"UTC","BSTAR":"0.00007957500000","TLE_LINE1":"1 46052U 20055AB  21290.68276928  .00000904  00000-0  79575-4 0  9991","SEMIMAJOR_AXIS":"6925.361","RA_OF_ASC_NODE":"117.2913","OBJECT_TYPE":"PAYLOAD","MEAN_MOTION_DDOT":"0.0000000000000","REV_AT_EPOCH":"6724","ELEMENT_SET_NO":"999","RCS_SIZE":"LARGE","MEAN_MOTION":"15.06395981","PERIAPSIS":"546.277","GP_ID":"187442115","NORAD_CAT_ID":"46052","MEAN_ELEMENT_THEORY":"SGP4","APOAPSIS":"548.175","EPOCH":"2021-10-17T16:23:11.265792","ECCENTRICITY":"0.00013700","OBJECT_ID":"2020-055AB","EPHEMERIS_TYPE":"0","MEAN_ANOMALY":"277.1525","MEAN_MOTION_DOT":"0.00000904","DECAY_DATE":null,"FILE":"3168566","ARG_OF_PERICENTER":"82.9619","CLASSIFICATION_TYPE":"U","INCLINATION":"53.0530","LAUNCH_DATE":"2020-08-07","COUNTRY_CODE":"US","OBJECT_NAME":"STARLINK-1541"},{"TLE_LINE2":"2 46053  53.0526 117.5713 0001683  90.4707 269.6474 15.06394832 67261","CENTER_NAME":"EARTH","PERIOD":"95.592","SITE":"AFETR","TIME_SYSTEM":"UTC","REF_FRAME":"TEME","TLE_LINE1":"1 46053U 20055AC  21290.62010571 -.00000302  00000-0 -13959-5 0  9995","BSTAR":"-0.00000139590000","SEMIMAJOR_AXIS":"6925.364","OBJECT_TYPE":"PAYLOAD","RA_OF_ASC_NODE":"117.5713","MEAN_MOTION_DDOT":"0.0000000000000","REV_AT_EPOCH":"6726","ELEMENT_SET_NO":"999","RCS_SIZE":"LARGE","MEAN_MOTION":"15.06394832","GP_ID":"187442365","NORAD_CAT_ID":"46053","PERIAPSIS":"546.064","MEAN_ELEMENT_THEORY":"SGP4","EPOCH":"2021-10-17T14:52:57.133344","ECCENTRICITY":"0.00016830","APOAPSIS":"548.395","OBJECT_ID":"2020-055AC","MEAN_MOTION_DOT":"-0.00000302","EPHEMERIS_TYPE":"0","MEAN_ANOMALY":"269.6474","FILE":"3168566","ARG_OF_PERICENTER":"90.4707","DECAY_DATE":null,"CLASSIFICATION_TYPE":"U","INCLINATION":"53.0526","LAUNCH_DATE":"2020-08-07","OBJECT_NAME":"STARLINK-1543","COUNTRY_CODE":"US"},{"CLASSIFICATION_TYPE":"U","INCLINATION":"53.0542","LAUNCH_DATE":"2020-08-07","OBJECT_NAME":"STARLINK-1548","COUNTRY_CODE":"US","MEAN_MOTION":"15.06388681","NORAD_CAT_ID":"46054","GP_ID":"187443117","PERIAPSIS":"546.200","MEAN_ELEMENT_THEORY":"SGP4","EPOCH":"2021-10-17T15:03:35.065152","ECCENTRICITY":"0.00015130","APOAPSIS":"548.296","OBJECT_ID":"2020-055AD","MEAN_MOTION_DOT":"0.00000664","MEAN_ANOMALY":"275.6076","EPHEMERIS_TYPE":"0","FILE":"3168566","ARG_OF_PERICENTER":"84.5086","DECAY_DATE":null,"RA_OF_ASC_NODE":"117.5248","OBJECT_TYPE":"PAYLOAD","MEAN_MOTION_DDOT":"0.0000000000000","REV_AT_EPOCH":"6726","ELEMENT_SET_NO":"999","RCS_SIZE":"LARGE","TLE_LINE2":"2 46054  53.0542 117.5248 0001513  84.5086 275.6076 15.06388681 67269","CENTER_NAME":"EARTH","PERIOD":"95.593","SITE":"AFETR","TIME_SYSTEM":"UTC","REF_FRAME":"TEME","TLE_LINE1":"1 46054U 20055AD  21290.62748918  .00000664  00000-0  63514-4 0  9999","BSTAR":"0.00006351400000","SEMIMAJOR_AXIS":"6925.383"},{"SEMIMAJOR_AXIS":"6925.403","REF_FRAME":"TEME","TIME_SYSTEM":"UTC","BSTAR":"0.00007816300000","TLE_LINE1":"1 46055U 20055AE  21290.67911486  .00000882  00000-0  78163-4 0  9995","CENTER_NAME":"EARTH","PERIOD":"95.593","TLE_LINE2":"2 46055  53.0542 117.3089 0001691  83.6177 276.5005 15.06382085 67274","SITE":"AFETR","ELEMENT_SET_NO":"999","RCS_SIZE":"LARGE","MEAN_MOTION_DDOT":"0.0000000000000","REV_AT_EPOCH":"6727","OBJECT_TYPE":"PAYLOAD","RA_OF_ASC_NODE":"117.3089","EPHEMERIS_TYPE":"0","MEAN_ANOMALY":"276.5005","MEAN_MOTION_DOT":"0.00000882","DECAY_DATE":null,"FILE":"3168566","ARG_OF_PERICENTER":"83.6177","APOAPSIS":"548.440","EPOCH":"2021-10-17T16:17:55.523904","ECCENTRICITY":"0.00016910","OBJECT_ID":"2020-055AE","PERIAPSIS":"546.097","GP_ID":"187443867","NORAD_CAT_ID":"46055","MEAN_ELEMENT_THEORY":"SGP4","MEAN_MOTION":"15.06382085","COUNTRY_CODE":"US","OBJECT_NAME":"STARLINK-1554","LAUNCH_DATE":"2020-08-07","CLASSIFICATION_TYPE":"U","INCLINATION":"53.0542"},{"OBJECT_ID":"2020-055AF","APOAPSIS":"548.386","ECCENTRICITY":"0.00016140","EPOCH":"2021-10-17T15:14:13.894656","DECAY_DATE":null,"ARG_OF_PERICENTER":"82.5622","FILE":"3168566","EPHEMERIS_TYPE":"0","MEAN_ANOMALY":"277.5551","MEAN_MOTION_DOT":"0.00000959","MEAN_MOTION":"15.06382256","GP_ID":"187442615","NORAD_CAT_ID":"46056","PERIAPSIS":"546.150","MEAN_ELEMENT_THEORY":"SGP4","LAUNCH_DATE":"2020-08-07","COUNTRY_CODE":"US","OBJECT_NAME":"STARLINK-1561","INCLINATION":"53.0538","CLASSIFICATION_TYPE":"U","SEMIMAJOR_AXIS":"6925.403","SITE":"AFETR","PERIOD":"95.593","CENTER_NAME":"EARTH","TLE_LINE2":"2 46056  53.0538 117.4994 0001614  82.5622 277.5551 15.06382256 67271","BSTAR":"0.00008333800000","TLE_LINE1":"1 46056U 20055AF  21290.63488304  .00000959  00000-0  83338-4 0  9995","REF_FRAME":"TEME","TIME_SYSTEM":"UTC","RCS_SIZE":"LARGE","ELEMENT_SET_NO":"999","OBJECT_TYPE":"PAYLOAD","RA_OF_ASC_NODE":"117.4994","REV_AT_EPOCH":"6727","MEAN_MOTION_DDOT":"0.0000000000000"},{"PERIAPSIS":"546.163","GP_ID":"187442865","MEAN_ELEMENT_THEORY":"SGP4","NORAD_CAT_ID":"46058","MEAN_MOTION":"15.06388786","MEAN_MOTION_DOT":"0.00000803","MEAN_ANOMALY":"283.0960","EPHEMERIS_TYPE":"0","ARG_OF_PERICENTER":"77.0204","FILE":"3168566","DECAY_DATE":null,"ECCENTRICITY":"0.00015670","EPOCH":"2021-10-17T05:56:53.112480","APOAPSIS":"548.333","OBJECT_ID":"2020-055AH","CLASSIFICATION_TYPE":"U","INCLINATION":"53.0538","OBJECT_NAME":"STARLINK-1564","COUNTRY_CODE":"US","LAUNCH_DATE":"2020-08-07","TIME_SYSTEM":"UTC","REF_FRAME":"TEME","TLE_LINE1":"1 46058U 20055AH  21290.24783695  .00000803  00000-0  72810-4 0  9996","BSTAR":"0.00007281000000","TLE_LINE2":"2 46058  53.0538 119.2297 0001567  77.0204 283.0960 15.06388786 67204","PERIOD":"95.593","CENTER_NAME":"EARTH","SITE":"AFETR","SEMIMAJOR_AXIS":"6925.383","MEAN_MOTION_DDOT":"0.0000000000000","REV_AT_EPOCH":"6720","RA_OF_ASC_NODE":"119.2297","OBJECT_TYPE":"PAYLOAD","ELEMENT_SET_NO":"999","RCS_SIZE":"LARGE"},{"RCS_SIZE":"LARGE","ELEMENT_SET_NO":"999","RA_OF_ASC_NODE":"117.4228","OBJECT_TYPE":"PAYLOAD","REV_AT_EPOCH":"6722","MEAN_MOTION_DDOT":"0.0000000000000","SEMIMAJOR_AXIS":"6925.371","SITE":"AFETR","CENTER_NAME":"EARTH","PERIOD":"95.593","TLE_LINE2":"2 46059  53.0527 117.4228 0001709  78.7533 281.3648 15.06392590 67222","BSTAR":"0.00007930800000","TLE_LINE1":"1 46059U 20055AJ  21290.65329034  .00000900  00000-0  79308-4 0  9992","REF_FRAME":"TEME","TIME_SYSTEM":"UTC","LAUNCH_DATE":"2020-08-07","COUNTRY_CODE":"US","OBJECT_NAME":"STARLINK-1570","INCLINATION":"53.0527","CLASSIFICATION_TYPE":"U","OBJECT_ID":"2020-055AJ","APOAPSIS":"548.420","EPOCH":"2021-10-17T15:40:44.285376","ECCENTRICITY":"0.00017090","DECAY_DATE":null,"ARG_OF_PERICENTER":"78.7533","FILE":"3168566","MEAN_ANOMALY":"281.3648","EPHEMERIS_TYPE":"0","MEAN_MOTION_DOT":"0.00000900","MEAN_MOTION":"15.06392590","GP_ID":"187443617","PERIAPSIS":"546.053","NORAD_CAT_ID":"46059","MEAN_ELEMENT_THEORY":"SGP4"},{"OBJECT_ID":"2020-055AK","ECCENTRICITY":"0.00014950","EPOCH":"2021-10-17T12:24:22.391712","APOAPSIS":"548.300","ARG_OF_PERICENTER":"81.5024","FILE":"3168566","DECAY_DATE":null,"MEAN_MOTION_DOT":"0.00000681","MEAN_ANOMALY":"278.6134","EPHEMERIS_TYPE":"0","MEAN_MOTION":"15.06383185","GP_ID":"187443368","PERIAPSIS":"546.230","MEAN_ELEMENT_THEORY":"SGP4","NORAD_CAT_ID":"46060","LAUNCH_DATE":"2020-08-07","OBJECT_NAME":"STARLINK-1572","COUNTRY_CODE":"US","INCLINATION":"53.0540","CLASSIFICATION_TYPE":"U","SEMIMAJOR_AXIS":"6925.400","SITE":"AFETR","TLE_LINE2":"2 46060  53.0540 118.0278 0001495  81.5024 278.6134 15.06383185 67218","CENTER_NAME":"EARTH","PERIOD":"95.593","TLE_LINE1":"1 46060U 20055AK  21290.51692583  .00000681  00000-0  64643-4 0  9993","BSTAR":"0.00006464300000","TIME_SYSTEM":"UTC","REF_FRAME":"TEME","RCS_SIZE":"LARGE","ELEMENT_SET_NO":"999","RA_OF_ASC_NODE":"118.0278","OBJECT_TYPE":"PAYLOAD","REV_AT_EPOCH":"6721","MEAN_MOTION_DDOT":"0.0000000000000"}];
